     2.11           N: GPS NAV DATA                         RINEX VERSION / TYPE
teqc  2019Feb25                         20221121 12:27:36UTCPGM / RUN BY / DATE
OSX ker:10.11.6|Core i5|gcc 4.3 -m64|OSX ker:10.10+|=+      COMMENT
    8.3819D-09  1.4901D-08 -5.9605D-08 -5.9605D-08          ION ALPHA
    8.3968D+04  1.6384D+04 -1.3107D+05 -6.5536D+04          ION BETA
   -2.793967723846D-09-7.105427357601D-15   589824     1550 DELTA-UTC: A0,A1,T,W
                                                            END OF HEADER
13 09  9 24  2  0  0.0 3.049736842513D-04 4.547473508865D-13 0.000000000000D+00
    7.600000000000D+01-2.743750000000D+01 3.826587964177D-09-1.768653635866D-01
   -1.462176442146D-06 4.002440604381D-03 4.217028617859D-06 5.153651456833D+03
    3.528000000000D+05-2.048909664154D-08-3.717824135898D-01 9.313225746155D-09
    9.945408058166D-01 3.148750000000D+02 1.660586550484D+00-7.957474317889D-09
   -2.467959943295D-10 1.000000000000D+00 1.550000000000D+03 0.000000000000D+00
    2.000000000000D+00 0.000000000000D+00-1.117587089539D-08 7.600000000000D+01
    3.456180000000D+05 4.000000000000D+00
31 09  9 24  2  0  0.0-6.395950913429D-05 5.684341886081D-13 0.000000000000D+00
    7.300000000000D+01-7.575000000000D+01 3.926234972018D-09-2.660578320726D+00
   -3.874301910400D-06 7.050469401293D-03 7.834285497665D-06 5.153796567917D+03
    3.528000000000D+05 1.378357410431D-07 6.130450887029D-01 2.607703208923D-08
    9.743481739010D-01 2.381875000000D+02-1.141115208554D+00-7.663176344911D-09
   -3.643008888800D-11 1.000000000000D+00 1.550000000000D+03 0.000000000000D+00
    2.000000000000D+00 0.000000000000D+00-1.303851604462D-08 7.300000000000D+01
    3.456180000000D+05 4.000000000000D+00
30 09  9 24  1 59 44.0 1.794081181288D-04 3.069544618484D-12 0.000000000000D+00
    2.000000000000D+01-2.606250000000D+01 4.640550440410D-09 1.326981335082D+00
   -1.501291990280D-06 1.191265648231D-02 7.750466465950D-06 5.153667667389D+03
    3.527840000000D+05-1.564621925354D-07 1.617750720394D+00-1.806765794754D-07
    9.529483405234D-01 2.266562500000D+02 1.456691578080D+00-8.170697485204D-09
    4.346609625166D-10 1.000000000000D+00 1.550000000000D+03 0.000000000000D+00
    2.000000000000D+00 0.000000000000D+00-7.916241884232D-09 2.000000000000D+01
    3.479580000000D+05 4.000000000000D+00
29 09  9 24  2  0  0.0 6.015878170729D-05 3.296918293927D-12 0.000000000000D+00
    3.900000000000D+01-1.853125000000D+01 4.704124517097D-09 2.890545407436D+00
   -1.214444637299D-06 3.058505011722D-03 7.085502147675D-06 5.153599256516D+03
    3.528000000000D+05 4.470348358154D-08 2.735651471504D+00 2.235174179077D-08
    9.603676582992D-01 2.420312500000D+02-1.273474933708D+00-7.929973172356D-09
   -5.500229106620D-11 1.000000000000D+00 1.550000000000D+03 0.000000000000D+00
    2.000000000000D+00 0.000000000000D+00-8.847564458847D-09 3.900000000000D+01
    3.481020000000D+05 4.000000000000D+00
10 09  9 24  2  0  0.0-2.423906698823D-05-7.958078640513D-13 0.000000000000D+00
    3.400000000000D+01 8.721875000000D+01 4.820915096179D-09 2.554723436657D-01
    4.695728421211D-06 8.636444341391D-03 5.058944225311D-06 5.153673482895D+03
    3.528000000000D+05 2.793967723846D-08-1.456879865877D+00 1.005828380585D-07
    9.563160276811D-01 2.771250000000D+02 6.244033543689D-01-8.380349075177D-09
   -5.393081786361D-11 1.000000000000D+00 1.550000000000D+03 0.000000000000D+00
    2.000000000000D+00 0.000000000000D+00-2.793967723846D-09 3.400000000000D+01
    3.485820000000D+05 4.000000000000D+00
 5 09  9 24  2  0  0.0-8.262600749731D-05 1.034550223267D-11 0.000000000000D+00
    1.360000000000D+02 9.243750000000D+01 4.644836333220D-09 5.636386322800D-01
    4.848465323448D-06 1.473730430007D-03 5.288049578667D-06 5.153564048767D+03
    3.528000000000D+05 7.450580596924D-09-1.484021632235D+00-2.421438694000D-08
    9.612375123150D-01 2.749062500000D+02 2.248904054852D-01-8.193555580192D-09
   -3.607293115380D-11 1.000000000000D+00 1.550000000000D+03 0.000000000000D+00
    2.800000000000D+00 0.000000000000D+00-9.313225746155D-09 1.360000000000D+02
    3.493020000000D+05 4.000000000000D+00
25 09  9 24  2  0  0.0 6.060185842216D-04 1.432454155292D-11 0.000000000000D+00
    2.900000000000D+01-6.425000000000D+01 3.928735076157D-09 2.062245834257D+00
   -3.360211849213D-06 1.122650899924D-02 7.538124918938D-06 5.153648181915D+03
    3.528000000000D+05 1.806765794754D-07 5.203594955874D-01 5.029141902924D-08
    9.712032482050D-01 2.369375000000D+02-1.213722189590D+00-7.644604142733D-09
   -6.428839215530D-11 1.000000000000D+00 1.550000000000D+03 0.000000000000D+00
    2.800000000000D+00 0.000000000000D+00-7.450580596924D-09 2.900000000000D+01
    3.501120000000D+05 4.000000000000D+00
 2 09  9 24  1 59 44.0 1.749093644321D-04 3.183231456205D-12 0.000000000000D+00
    0.000000000000D+00 4.200000000000D+01 5.036638367633D-09-7.852099209507D-01
    2.155080437660D-06 9.089499246329D-03 9.428709745407D-06 5.153712469101D+03
    3.527840000000D+05 7.264316082001D-08-2.542114572064D+00-1.192092895508D-07
    9.410618166020D-01 1.878750000000D+02 2.897090257152D+00-8.169983169735D-09
   -7.536028191537D-11 1.000000000000D+00 1.550000000000D+03 0.000000000000D+00
    2.000000000000D+00 0.000000000000D+00-1.722946763039D-08 0.000000000000D+00
    3.514560000000D+05 4.000000000000D+00
16 09  9 24  2  0  0.0 9.612645953894D-06-3.979039320257D-12 0.000000000000D+00
    6.000000000000D+01-2.409375000000D+01 4.251248510136D-09 1.426255295338D+00
   -1.141801476479D-06 5.283081321977D-03 7.266178727150D-06 5.153622312546D+03
    3.528000000000D+05 5.029141902924D-08 1.684576126295D+00 1.005828380585D-07
    9.691880361262D-01 2.427812500000D+02-2.755161339072D-01-7.806396596324D-09
    3.407284784231D-10 1.000000000000D+00 1.550000000000D+03 0.000000000000D+00
    2.000000000000D+00 0.000000000000D+00-9.778887033463D-09 6.000000000000D+01
    3.521820000000D+05 4.000000000000D+00
 7 09  9 24  2  0  0.0 1.090578734875D-05-6.821210263297D-13 0.000000000000D+00
    8.700000000000D+01-5.721875000000D+01 4.038025342821D-09-2.477456932803D+00
   -3.004446625710D-06 3.160861553624D-03 8.137896656990D-06 5.153655794144D+03
    3.528000000000D+05-4.097819328308D-08 6.145868668442D-01 5.587935447693D-09
    9.690117925335D-01 2.272812500000D+02 2.955255837559D+00-7.821040063426D-09
    5.643092200298D-11 1.000000000000D+00 1.550000000000D+03 0.000000000000D+00
    2.000000000000D+00 0.000000000000D+00-1.071020960808D-08 8.700000000000D+01
    3.524820000000D+05 4.000000000000D+00
 2 09  9 24  3 59 44.0 1.749321818352D-04 3.183231456205D-12 0.000000000000D+00
    1.200000000000D+01 3.246875000000D+01 5.012708799442D-09 2.650047954049D-01
    1.741573214531D-06 9.090814506635D-03 9.274110198021D-06 5.153715141296D+03
    3.599840000000D+05 1.173466444016D-07-2.542173406241D+00-3.352761268616D-08
    9.410608686311D-01 1.913125000000D+02 2.897035247044D+00-8.232128615486D-09
   -1.164334213479D-10 1.000000000000D+00 1.550000000000D+03 0.000000000000D+00
    2.000000000000D+00 0.000000000000D+00-1.722946763039D-08 1.200000000000D+01
    3.528180000000D+05 4.000000000000D+00
10 09  9 24  4  0  0.0-2.424512058496D-05-7.958078640513D-13 0.000000000000D+00
    3.500000000000D+01 8.356250000000D+01 4.832344143673D-09 1.305551947833D+00
    4.570931196213D-06 8.636781712994D-03 5.647540092468D-06 5.153675136566D+03
    3.600000000000D+05-5.029141902924D-08-1.456940263913D+00 1.695007085800D-07
    9.563156487853D-01 2.694062500000D+02 6.245070840382D-01-8.357848137923D-09
   -2.071514858337D-11 1.000000000000D+00 1.550000000000D+03 0.000000000000D+00
    2.000000000000D+00 0.000000000000D+00-2.793967723846D-09 3.500000000000D+01
    3.528180000000D+05 4.000000000000D+00
13 09  9 24  4  0  0.0 3.049769438803D-04 4.547473508865D-13 0.000000000000D+00
    7.900000000000D+01-1.696875000000D+01 3.898376668750D-09 8.734974805391D-01
   -1.046806573868D-06 4.000841523521D-03 3.933906555176D-06 5.153648157120D+03
    3.600000000000D+05-6.519258022308D-08-3.718398199582D-01-5.587935447693D-09
    9.945391673483D-01 3.215937500000D+02 1.660414446949D+00-7.933901907432D-09
   -2.189376910622D-10 1.000000000000D+00 1.550000000000D+03 0.000000000000D+00
    2.000000000000D+00 0.000000000000D+00-1.117587089539D-08 7.900000000000D+01
    3.528180000000D+05 4.000000000000D+00
 5 09  9 24  4  0  0.0-8.255196735263D-05 1.034550223267D-11 0.000000000000D+00
    1.370000000000D+02 8.593750000000D+01 4.709124725375D-09 1.613884694581D+00
    4.637986421585D-06 1.473238109611D-03 5.532056093216D-06 5.153563625336D+03
    3.600000000000D+05 5.401670932770D-08-1.484081159834D+00 7.823109626770D-08
    9.612374669645D-01 2.730937500000D+02 2.248944065662D-01-8.211413466902D-09
    5.321650239522D-11 1.000000000000D+00 1.550000000000D+03 0.000000000000D+00
    2.800000000000D+00 0.000000000000D+00-9.313225746155D-09 1.370000000000D+02
    3.528180000000D+05 4.000000000000D+00
29 09  9 24  4  0  0.0 6.018253043294D-05 3.296918293927D-12 0.000000000000D+00
    5.900000000000D+01-2.087500000000D+01 4.615192241282D-09-2.342389252657D+00
   -1.033768057823D-06 3.058107104152D-03 7.009133696556D-06 5.153600013733D+03
    3.600000000000D+05 5.215406417847D-08 2.735594410385D+00 5.401670932770D-08
    9.603672355159D-01 2.403125000000D+02-1.273498499856D+00-7.943902323989D-09
   -5.928818387655D-11 1.000000000000D+00 1.550000000000D+03 0.000000000000D+00
    2.800000000000D+00 0.000000000000D+00-8.847564458847D-09 5.900000000000D+01
    3.528180000000D+05 4.000000000000D+00
